{
"type": "FeatureCollection",
"name": "raw_cadastral",
"crs": { "type": "name", "properties": { "name": "urn:ogc:def:crs:OGC:1.3:CRS84" } },
"features": [
{ "type": "Feature", "properties": { "parcel_no": "C001", "landuse": "Residential", "owner_name": "Alice" }, "geometry": { "type": "Polygon", "coordinates": [ [ [ 0.0, 0.0 ], [ 0.0, 10.0 ], [ 10.0, 10.0 ], [ 10.0, 0.0 ], [ 0.0, 0.0 ] ] ] } },
{ "type": "Feature", "properties": { "parcel_no": "C002", "landuse": "Commercial", "owner_name": "Bob" }, "geometry": { "type": "Polygon", "coordinates": [ [ [ 10.0, 0.0 ], [ 10.0, 10.0 ], [ 20.0, 10.0 ], [ 20.0, 0.0 ], [ 10.0, 0.0 ] ] ] } },
{ "type": "Feature", "properties": { "parcel_no": "C003", "landuse": "Agricultural", "owner_name": "Charlie" }, "geometry": { "type": "Polygon", "coordinates": [ [ [ 20.0, 0.0 ], [ 20.0, 10.0 ], [ 30.0, 10.0 ], [ 30.0, 0.0 ], [ 20.0, 0.0 ] ] ] } }
]
}
